0 THORAD AGENA D DEB
1 04326U 69082DZ  13281.81204419  .00000449  00000-0  20439-3 0  1703
2 04326 070.0559 097.9085 0067788 083.5490 017.6459 14.26503617276053
0 THORAD AGENA D DEB
1 04326U 69082DZ  13283.84731108  .00000398  00000-0  18398-3 0  1713
2 04326 070.0561 093.3442 0067813 080.6396 029.6923 14.26508050276342
0 THORAD AGENA D DEB
1 04326U 69082DZ  13285.88869620  .00000326  00000-0  15467-3 0  1726
2 04326 070.0564 088.7660 0067858 077.6784 073.2239 14.26510773276633
0 THORAD AGENA D DEB
1 04326U 69082DZ  13288.12451628  .00000633  00000-0  27887-3 0  1732
2 04326 070.0569 083.7520 0067834 074.4661 035.2749 14.26513035276954
0 THORAD AGENA D DEB
1 04326U 69082DZ  13290.42363230  .00000579  00000-0  25717-3 0  1749
2 04326 070.0573 078.5961 0067901 071.1504 322.4172 14.26515737277284
0 THORAD AGENA D DEB
1 04326U 69082DZ  13292.46160961  .00000525  00000-0  23509-3 0  1750
2 04326 070.0576 074.0259 0067976 068.2002 348.5029 14.26519177277574
0 THORAD AGENA D DEB
1 04326U 69082DZ  13294.49651839  .00000565  00000-0  25157-3 0  1760
2 04326 070.0578 069.4628 0067983 065.2530 358.8581 14.26521917277869
